{
    "links": {
        "self": "http://www.neowsapp.com/rest/v1/neo/3581555?api_key=iIulBulltgU6a56xZRHN4H3l9WmuAYTsLGpBGhQ2"
    },
    "id": "3581555",
    "neo_reference_id": "3581555",
    "name": "(2011 TJ5)",
    "designation": "2011 TJ5",
    "nasa_jpl_url": "http://ssd.jpl.nasa.gov/sbdb.cgi?sstr=3581555",
    "absolute_magnitude_h": 26.1,
    "estimated_diameter": {
        "kilometers": {
            "estimated_diameter_min": 0.0160160338,
            "estimated_diameter_max": 0.0358129403
        },
        "meters": {
            "estimated_diameter_min": 16.0160337979,
            "estimated_diameter_max": 35.8129403019
        },
        "miles": {
            "estimated_diameter_min": 0.0099518989,
            "estimated_diameter_max": 0.0222531225
        },
        "feet": {
            "estimated_diameter_min": 52.5460443254,
            "estimated_diameter_max": 117.4965270602
        }
    },
    "is_potentially_hazardous_asteroid": false,
    "close_approach_data": [
        {
            "close_approach_date": "2011-10-14",
            "close_approach_date_full": "2011-Oct-14 16:37",
            "epoch_date_close_approach": 1318610220000,
            "relative_velocity": {
                "kilometers_per_second": "10.46874688",
                "kilometers_per_hour": "37687.4887680817",
                "miles_per_hour": "23417.5398959228"
            },
            "miss_distance": {
                "astronomical": "0.0400837383",
                "lunar": "15.5925741987",
                "kilometers": "5996441.871317421",
                "miles": "3726016.2011695698"
            },
            "orbiting_body": "Earth"
        },
        {
            "close_approach_date": "2012-03-11",
            "close_approach_date_full": "2012-Mar-11 05:56",
            "epoch_date_close_approach": 1331445360000,
            "relative_velocity": {
                "kilometers_per_second": "7.4087090213",
                "kilometers_per_hour": "26671.3524765518",
                "miles_per_hour": "16572.5412096663"
            },
            "miss_distance": {
                "astronomical": "0.4517147668",
                "lunar": "175.7170442852",
                "kilometers": "67575566.960826716",
                "miles": "41989510.2299960408"
            },
            "orbiting_body": "Earth"
        }
    ],
    "orbital_data": {
        "orbit_id": "4",
        "orbit_determination_date": "2017-04-06 08:52:30",
        "first_observation_date": "2011-10-03",
        "last_observation_date": "2011-10-05",
        "data_arc_in_days": 2,
        "observations_used": 19,
        "orbit_uncertainty": "9",
        "minimum_orbit_intersection": ".0381254",
        "jupiter_tisserand_invariant": "4.517",
        "epoch_osculation": "2455838.5",
        "eccentricity": ".4028970891065835",
        "semi_major_axis": "1.460332507722898",
        "inclination": "10.39362185977982",
        "ascending_node_longitude": "9.724992866442239",
        "orbital_period": "644.5788573818123",
        "perihelion_distance": ".8719687912336253",
        "perihelion_argument": "70.18284508169369",
        "aphelion_distance": "2.048696224212172",
        "perihelion_time": "2455895.456414043259",
        "mean_anomaly": "328.1896034585142",
        "mean_motion": ".5585042014289281",
        "equinox": "J2000",
        "orbit_class": {
            "orbit_class_type": "APO",
            "orbit_class_description": "Near-Earth asteroid orbits which cross the Earth’s orbit similar to that of 1862 Apollo",
            "orbit_class_range": "a (semi-major axis) > 1.0 AU; q (perihelion) < 1.017 AU"
        }
    },
    "is_sentry_object": false
}